ONEWEB-0361             
1 49287U 21090J   24089.91480151 -.00000232  00000+0 -60178-3 0  9997
2 49287  87.9144  75.4833 0002009  83.4765 276.6597 13.20771005123474
ONEWEB-0362             
1 49288U 21090K   24090.06040551 -.00000169  00000+0 -45461-3 0  9999
2 49288  87.9099 106.0406 0001683 100.3183 259.8139 13.19721372121014
ONEWEB-0363             
1 49289U 21090L   24090.23362063  .00000089  00000+0  18747-3 0  9990
2 49289  87.9147  75.4148 0002347  83.0178 277.1222 13.20768799124352
ONEWEB-0364             
1 49290U 21090M   24089.96846213  .00000080  00000+0  16392-3 0  9999
2 49290  87.9146  75.4916 0001814  80.6522 279.4817 13.20773068124620
ONEWEB-0365             
1 49291U 21090N   24089.76661183 -.00000195  00000+0 -52069-3 0  9999
2 49291  87.9094 106.0847 0001814  93.0581 267.0759 13.19724679119668
ONEWEB-0366             
1 49292U 21090P   24089.92326197  .00000182  00000+0  45647-3 0  9999
2 49292  87.8896  90.7640 0001899  82.8073 277.3273 13.14503291121245
ONEWEB-0367             
1 49293U 21090Q   24090.23204069  .00000053  00000+0  98497-4 0  9998
2 49293  87.9146  75.4095 0001836  77.9769 282.1570 13.20769502124341
ONEWEB-0368             
1 49294U 21090R   24089.90217625  .00000133  00000+0  29528-3 0  9990
2 49294  87.9146  75.5050 0002218  63.2448 296.8912 13.20769814124158
